HELIOS 2A               
1 28492U 04049A   22261.39975686  .00001201  00000+0  12036-3 0  9996
2 28492  98.2396 208.7970 0015123 132.8835 227.3660 14.93327955948992
CFESAT                  
1 30777U 07006F   22261.10396297  .00127150  00000+0  10260-2 0  9993
2 30777  35.4172  42.1598 0001459  46.4891 313.5967 15.69498787863586
SPIRALE A               
1 33751U 09008C   22260.78446605  .00000177  00000+0  71507-3 0  9995
2 33751   1.9729 167.8729 5444571  59.8738 343.0281  4.58865003199053
SPIRALE B               
1 33752U 09008D   22260.88672357  .00003219  00000+0  85518-3 0  9999
2 33752   2.1990  64.2002 6855963 252.2988  27.1651  2.82972517127695
SAPPHIRE                
1 39088U 13009C   22261.47633894  .00000067  00000+0  39009-4 0  9995
2 39088  98.4246  94.9001 0011510   6.3026 353.8302 14.34322342500479
